IRIDIUM 136             
1 42962U 17061H   23352.58831867  .00000323  00000+0  10812-3 0  9991
2 42962  86.3975  46.2102 0002273 100.2019 259.9433 14.34217468324177
